<?xml version="1.0" encoding="UTF-8"?>
<ndm xmlns:xsi="http://www.w3.org/2001/XMLSchema-instance" xsi:noNamespaceSchemaLocation="https://sanaregistry.org/r/ndmxml_unqualified/ndmxml-2.0.0-master-2.0.xsd">
<omm id="CCSDS_OMM_VERS" version="2.0">
<header><CREATION_DATE/><ORIGINATOR/></header><body><segment><metadata><OBJECT_NAME>KUIPER-00035</OBJECT_NAME><OBJECT_ID>2025-088AA</OBJECT_ID><CENTER_NAME>EARTH</CENTER_NAME><REF_FRAME>TEME</REF_FRAME><TIME_SYSTEM>UTC</TIME_SYSTEM><MEAN_ELEMENT_THEORY>SGP4</MEAN_ELEMENT_THEORY></metadata><data><meanElements><EPOCH>2025-12-29T04:56:54.279456</EPOCH><MEAN_MOTION>14.79949635</MEAN_MOTION><ECCENTRICITY>.00060553</ECCENTRICITY><INCLINATION>51.9016</INCLINATION><RA_OF_ASC_NODE>65.7921</RA_OF_ASC_NODE><ARG_OF_PERICENTER>197.4323</ARG_OF_PERICENTER><MEAN_ANOMALY>162.6432</MEAN_ANOMALY></meanElements><tleParameters><EPHEMERIS_TYPE>0</EPHEMERIS_TYPE><CLASSIFICATION_TYPE>U</CLASSIFICATION_TYPE><NORAD_CAT_ID>63748</NORAD_CAT_ID><ELEMENT_SET_NO>999</ELEMENT_SET_NO><REV_AT_EPOCH>3707</REV_AT_EPOCH><BSTAR>.64923558E-3</BSTAR><MEAN_MOTION_DOT>.4734E-4</MEAN_MOTION_DOT><MEAN_MOTION_DDOT>0</MEAN_MOTION_DDOT></tleParameters></data></segment></body></omm>
<omm id="CCSDS_OMM_VERS" version="2.0">
<header><CREATION_DATE/><ORIGINATOR/></header><body><segment><metadata><OBJECT_NAME>KUIPER-00037</OBJECT_NAME><OBJECT_ID>2025-088AB</OBJECT_ID><CENTER_NAME>EARTH</CENTER_NAME><REF_FRAME>TEME</REF_FRAME><TIME_SYSTEM>UTC</TIME_SYSTEM><MEAN_ELEMENT_THEORY>SGP4</MEAN_ELEMENT_THEORY></metadata><data><meanElements><EPOCH>2025-12-29T04:59:18.786912</EPOCH><MEAN_MOTION>14.79993824</MEAN_MOTION><ECCENTRICITY>.00008701</ECCENTRICITY><INCLINATION>51.9047</INCLINATION><RA_OF_ASC_NODE>64.7297</RA_OF_ASC_NODE><ARG_OF_PERICENTER>124.1514</ARG_OF_PERICENTER><MEAN_ANOMALY>235.9532</MEAN_ANOMALY></meanElements><tleParameters><EPHEMERIS_TYPE>0</EPHEMERIS_TYPE><CLASSIFICATION_TYPE>U</CLASSIFICATION_TYPE><NORAD_CAT_ID>63749</NORAD_CAT_ID><ELEMENT_SET_NO>999</ELEMENT_SET_NO><REV_AT_EPOCH>3787</REV_AT_EPOCH><BSTAR>-.34466544E-2</BSTAR><MEAN_MOTION_DOT>-.26431E-3</MEAN_MOTION_DOT><MEAN_MOTION_DDOT>0</MEAN_MOTION_DDOT></tleParameters></data></segment></body></omm>
<omm id="CCSDS_OMM_VERS" version="2.0">
<header><CREATION_DATE/><ORIGINATOR/></header><body><segment><metadata><OBJECT_NAME>KUIPER-00038</OBJECT_NAME><OBJECT_ID>2025-088AC</OBJECT_ID><CENTER_NAME>EARTH</CENTER_NAME><REF_FRAME>TEME</REF_FRAME><TIME_SYSTEM>UTC</TIME_SYSTEM><MEAN_ELEMENT_THEORY>SGP4</MEAN_ELEMENT_THEORY></metadata><data><meanElements><EPOCH>2025-12-28T13:10:04.655136</EPOCH><MEAN_MOTION>14.79966045</MEAN_MOTION><ECCENTRICITY>.0006664</ECCENTRICITY><INCLINATION>51.9017</INCLINATION><RA_OF_ASC_NODE>52.6648</RA_OF_ASC_NODE><ARG_OF_PERICENTER>197.1190</ARG_OF_PERICENTER><MEAN_ANOMALY>162.9549</MEAN_ANOMALY></meanElements><tleParameters><EPHEMERIS_TYPE>0</EPHEMERIS_TYPE><CLASSIFICATION_TYPE>U</CLASSIFICATION_TYPE><NORAD_CAT_ID>63750</NORAD_CAT_ID><ELEMENT_SET_NO>999</ELEMENT_SET_NO><REV_AT_EPOCH>3698</REV_AT_EPOCH><BSTAR>.86597E-3</BSTAR><MEAN_MOTION_DOT>.6393E-4</MEAN_MOTION_DOT><MEAN_MOTION_DDOT>0</MEAN_MOTION_DDOT></tleParameters></data></segment></body></omm>
<omm id="CCSDS_OMM_VERS" version="2.0">
<header><CREATION_DATE/><ORIGINATOR/></header><body><segment><metadata><OBJECT_NAME>KUIPER-00039</OBJECT_NAME><OBJECT_ID>2025-134A</OBJECT_ID><CENTER_NAME>EARTH</CENTER_NAME><REF_FRAME>TEME</REF_FRAME><TIME_SYSTEM>UTC</TIME_SYSTEM><MEAN_ELEMENT_THEORY>SGP4</MEAN_ELEMENT_THEORY></metadata><data><meanElements><EPOCH>2025-12-28T20:36:52.662240</EPOCH><MEAN_MOTION>14.79930879</MEAN_MOTION><ECCENTRICITY>.00115897</ECCENTRICITY><INCLINATION>51.9002</INCLINATION><RA_OF_ASC_NODE>186.2958</RA_OF_ASC_NODE><ARG_OF_PERICENTER>57.0492</ARG_OF_PERICENTER><MEAN_ANOMALY>303.1583</MEAN_ANOMALY></meanElements><tleParameters><EPHEMERIS_TYPE>0</EPHEMERIS_TYPE><CLASSIFICATION_TYPE>U</CLASSIFICATION_TYPE><NORAD_CAT_ID>64500</NORAD_CAT_ID><ELEMENT_SET_NO>999</ELEMENT_SET_NO><REV_AT_EPOCH>2958</REV_AT_EPOCH><BSTAR>.61326647E-3</BSTAR><MEAN_MOTION_DOT>.4459E-4</MEAN_MOTION_DOT><MEAN_MOTION_DDOT>0</MEAN_MOTION_DDOT></tleParameters></data></segment></body></omm>
<omm id="CCSDS_OMM_VERS" version="2.0">
<header><CREATION_DATE/><ORIGINATOR/></header><body><segment><metadata><OBJECT_NAME>KUIPER-00040</OBJECT_NAME><OBJECT_ID>2025-134B</OBJECT_ID><CENTER_NAME>EARTH</CENTER_NAME><REF_FRAME>TEME</REF_FRAME><TIME_SYSTEM>UTC</TIME_SYSTEM><MEAN_ELEMENT_THEORY>SGP4</MEAN_ELEMENT_THEORY></metadata><data><meanElements><EPOCH>2025-12-28T20:18:57.482496</EPOCH><MEAN_MOTION>14.79938964</MEAN_MOTION><ECCENTRICITY>.00171084</ECCENTRICITY><INCLINATION>51.8983</INCLINATION><RA_OF_ASC_NODE>197.5044</RA_OF_ASC_NODE><ARG_OF_PERICENTER>35.7124</ARG_OF_PERICENTER><MEAN_ANOMALY>324.4980</MEAN_ANOMALY></meanElements><tleParameters><EPHEMERIS_TYPE>0</EPHEMERIS_TYPE><CLASSIFICATION_TYPE>U</CLASSIFICATION_TYPE><NORAD_CAT_ID>64501</NORAD_CAT_ID><ELEMENT_SET_NO>999</ELEMENT_SET_NO><REV_AT_EPOCH>2942</REV_AT_EPOCH><BSTAR>.49432006E-3</BSTAR><MEAN_MOTION_DOT>.3554E-4</MEAN_MOTION_DOT><MEAN_MOTION_DDOT>0</MEAN_MOTION_DDOT></tleParameters></data></segment></body></omm>
<omm id="CCSDS_OMM_VERS" version="2.0">
<header><CREATION_DATE/><ORIGINATOR/></header><body><segment><metadata><OBJECT_NAME>KUIPER-00041</OBJECT_NAME><OBJECT_ID>2025-134C</OBJECT_ID><CENTER_NAME>EARTH</CENTER_NAME><REF_FRAME>TEME</REF_FRAME><TIME_SYSTEM>UTC</TIME_SYSTEM><MEAN_ELEMENT_THEORY>SGP4</MEAN_ELEMENT_THEORY></metadata><data><meanElements><EPOCH>2025-12-28T23:31:59.042208</EPOCH><MEAN_MOTION>14.79939800</MEAN_MOTION><ECCENTRICITY>.00125998</ECCENTRICITY><INCLINATION>51.8975</INCLINATION><RA_OF_ASC_NODE>198.2654</RA_OF_ASC_NODE><ARG_OF_PERICENTER>37.4329</ARG_OF_PERICENTER><MEAN_ANOMALY>322.7509</MEAN_ANOMALY></meanElements><tleParameters><EPHEMERIS_TYPE>0</EPHEMERIS_TYPE><CLASSIFICATION_TYPE>U</CLASSIFICATION_TYPE><NORAD_CAT_ID>64502</NORAD_CAT_ID><ELEMENT_SET_NO>999</ELEMENT_SET_NO><REV_AT_EPOCH>2942</REV_AT_EPOCH><BSTAR>.60711096E-3</BSTAR><MEAN_MOTION_DOT>.4413E-4</MEAN_MOTION_DOT><MEAN_MOTION_DDOT>0</MEAN_MOTION_DDOT></tleParameters></data></segment></body></omm>
<omm id="CCSDS_OMM_VERS" version="2.0">
<header><CREATION_DATE/><ORIGINATOR/></header><body><segment><metadata><OBJECT_NAME>KUIPER-00042</OBJECT_NAME><OBJECT_ID>2025-134D</OBJECT_ID><CENTER_NAME>EARTH</CENTER_NAME><REF_FRAME>TEME</REF_FRAME><TIME_SYSTEM>UTC</TIME_SYSTEM><MEAN_ELEMENT_THEORY>SGP4</MEAN_ELEMENT_THEORY></metadata><data><meanElements><EPOCH>2025-12-28T23:37:24.682944</EPOCH><MEAN_MOTION>14.79899241</MEAN_MOTION><ECCENTRICITY>.00129359</ECCENTRICITY><INCLINATION>51.8988</INCLINATION><RA_OF_ASC_NODE>194.2552</RA_OF_ASC_NODE><ARG_OF_PERICENTER>47.1921</ARG_OF_PERICENTER><MEAN_ANOMALY>313.0126</MEAN_ANOMALY></meanElements><tleParameters><EPHEMERIS_TYPE>0</EPHEMERIS_TYPE><CLASSIFICATION_TYPE>U</CLASSIFICATION_TYPE><NORAD_CAT_ID>64503</NORAD_CAT_ID><ELEMENT_SET_NO>999</ELEMENT_SET_NO><REV_AT_EPOCH>2948</REV_AT_EPOCH><BSTAR>-.16098419E-3</BSTAR><MEAN_MOTION_DOT>-.1453E-4</MEAN_MOTION_DOT><MEAN_MOTION_DDOT>0</MEAN_MOTION_DDOT></tleParameters></data></segment></body></omm>
<omm id="CCSDS_OMM_VERS" version="2.0">
<header><CREATION_DATE/><ORIGINATOR/></header><body><segment><metadata><OBJECT_NAME>KUIPER-00043</OBJECT_NAME><OBJECT_ID>2025-134E</OBJECT_ID><CENTER_NAME>EARTH</CENTER_NAME><REF_FRAME>TEME</REF_FRAME><TIME_SYSTEM>UTC</TIME_SYSTEM><MEAN_ELEMENT_THEORY>SGP4</MEAN_ELEMENT_THEORY></metadata><data><meanElements><EPOCH>2025-12-28T22:11:43.178784</EPOCH><MEAN_MOTION>14.79955698</MEAN_MOTION><ECCENTRICITY>.00038047</ECCENTRICITY><INCLINATION>51.9047</INCLINATION><RA_OF_ASC_NODE>186.9660</RA_OF_ASC_NODE><ARG_OF_PERICENTER>71.0640</ARG_OF_PERICENTER><MEAN_ANOMALY>289.0734</MEAN_ANOMALY></meanElements><tleParameters><EPHEMERIS_TYPE>0</EPHEMERIS_TYPE><CLASSIFICATION_TYPE>U</CLASSIFICATION_TYPE><NORAD_CAT_ID>64504</NORAD_CAT_ID><ELEMENT_SET_NO>999</ELEMENT_SET_NO><REV_AT_EPOCH>2958</REV_AT_EPOCH><BSTAR>-.11721263E-2</BSTAR><MEAN_MOTION_DOT>-.9151E-4</MEAN_MOTION_DOT><MEAN_MOTION_DDOT>0</MEAN_MOTION_DDOT></tleParameters></data></segment></body></omm>

</ndm>
