KUIPER-00035            
1 63748U 25088AA  25363.20618379  .00004734  00000+0  64924-3 0  9991
2 63748  51.9016  65.7921 0006055 197.4323 162.6432 14.79949635 37075
KUIPER-00037            
1 63749U 25088AB  25363.20785633 -.00026431  00000+0 -34467-2 0  9998
2 63749  51.9047  64.7297 0000870 124.1514 235.9532 14.79993824 37875
KUIPER-00038            
1 63750U 25088AC  25362.54866499  .00006393  00000+0  86597-3 0  9991
2 63750  51.9017  52.6648 0006664 197.1190 162.9549 14.79966045 36980
KUIPER-00039            
1 64500U 25134A   25362.85894285  .00004459  00000+0  61327-3 0  9990
2 64500  51.9002 186.2958 0011589  57.0492 303.1583 14.79930879 29588
KUIPER-00040            
1 64501U 25134B   25362.84649864  .00003554  00000+0  49432-3 0  9999
2 64501  51.8983 197.5044 0017108  35.7124 324.4980 14.79938964 29428
KUIPER-00041            
1 64502U 25134C   25362.98054447  .00004413  00000+0  60711-3 0  9990
2 64502  51.8975 198.2654 0012599  37.4329 322.7509 14.79939800 29428
KUIPER-00042            
1 64503U 25134D   25362.98431346 -.00001453  00000+0 -16098-3 0  9990
2 64503  51.8988 194.2552 0012935  47.1921 313.0126 14.79899241 29484
KUIPER-00043            
1 64504U 25134E   25362.92480531 -.00009151  00000+0 -11721-2 0  9995
2 64504  51.9047 186.9660 0003804  71.0640 289.0734 14.79955698 29586
